{
  "type": "FeatureCollection",
  "properties": {
    "note": "Hand-authored approximate polygons for 8 Brooklyn neighborhoods. Built WITHOUT access to the live NYC NTA (Neighborhood Tabulation Area) dataset -- outbound network access to data.cityofnewyork.us/opendata.arcgis.com was blocked by the sandbox's egress proxy (403 on CONNECT) during this work package, and no cached NTA shapefile was available locally. Vertices are approximate street-corner coordinates from general geographic knowledge of NYC, NOT digitized from an authoritative parcel/NTA source. Precision is roughly city-block level (order ~50-150m), not survey grade. See docs/WP2-geo.md for the street-boundary rationale behind every vertex and every hand-tuning decision (especially the Fort Greene / Clinton Hill and Cobble Hill / Carroll Gardens splits). REPLACE with real NTA-derived geometry once network access is available (see docs/WP2-geo.md 'How to redo this with live data')."
  },
  "features": [
    {
      "type": "Feature",
      "properties": {
        "name": "Greenpoint",
        "boundary_note": "Newtown Creek (N/E, Queens border) - East River (W) - Metropolitan Ave / McCarren Park north edge (S, border with Williamsburg) - McGuinness Blvd (E, border with East Williamsburg)."
      },
      "geometry": {
        "type": "Polygon",
        "coordinates": [[
          [-73.9394, 40.7386],
          [-73.9591, 40.7395],
          [-73.9636, 40.7300],
          [-73.9581, 40.7195],
          [-73.9490, 40.7205],
          [-73.9424, 40.7275],
          [-73.9394, 40.7386]
        ]]
      }
    },
    {
      "type": "Feature",
      "properties": {
        "name": "Williamsburg",
        "boundary_note": "Metropolitan Ave / McCarren Park (N, border with Greenpoint) - Flushing Ave corridor (E/S, border with East Williamsburg/Bed-Stuy) - Flushing Ave / Navy Yard (S, border with Fort Greene) - East River (W)."
      },
      "geometry": {
        "type": "Polygon",
        "coordinates": [[
          [-73.9581, 40.7195],
          [-73.9490, 40.7205],
          [-73.9330, 40.7160],
          [-73.9376, 40.7010],
          [-73.9585, 40.6998],
          [-73.9695, 40.7050],
          [-73.9660, 40.7160],
          [-73.9581, 40.7195]
        ]]
      }
    },
    {
      "type": "Feature",
      "properties": {
        "name": "Fort Greene",
        "boundary_note": "HAND-TUNED. Flushing Ave / Navy Yard (N, border with Williamsburg) - Washington Ave (E, border with Clinton Hill -- see docs for why this line was chosen over the NTA cutline) - Atlantic Ave (S, border with Boerum Hill/Prospect Heights) - Flatbush Ave / Navy St / BQE (W, border with Downtown Brooklyn)."
      },
      "geometry": {
        "type": "Polygon",
        "coordinates": [[
          [-73.9740, 40.6975],
          [-73.9645, 40.6975],
          [-73.9605, 40.6900],
          [-73.9660, 40.6860],
          [-73.9770, 40.6870],
          [-73.9800, 40.6940],
          [-73.9740, 40.6975]
        ]]
      }
    },
    {
      "type": "Feature",
      "properties": {
        "name": "Clinton Hill",
        "boundary_note": "HAND-TUNED. Flushing Ave (N, border with Williamsburg) - Classon Ave (E, border with Bed-Stuy) - Grand Ave / Atlantic Ave (S, border with Crown Heights/Prospect Heights) - Washington Ave (W, border with Fort Greene -- shared hand-tuned line, see docs)."
      },
      "geometry": {
        "type": "Polygon",
        "coordinates": [[
          [-73.9645, 40.6975],
          [-73.9530, 40.6960],
          [-73.9530, 40.6860],
          [-73.9605, 40.6820],
          [-73.9605, 40.6900],
          [-73.9645, 40.6975]
        ]]
      }
    },
    {
      "type": "Feature",
      "properties": {
        "name": "Prospect Heights",
        "boundary_note": "Atlantic Ave (N, border with Fort Greene) - Grand Ave / Washington Ave (E, border with Clinton Hill/Crown Heights) - Eastern Parkway / Grand Army Plaza (S, border with Crown Heights/Park Slope) - Flatbush Ave / 4th Ave (W, border with Boerum Hill/Park Slope)."
      },
      "geometry": {
        "type": "Polygon",
        "coordinates": [[
          [-73.9660, 40.6860],
          [-73.9605, 40.6820],
          [-73.9585, 40.6760],
          [-73.9660, 40.6745],
          [-73.9740, 40.6800],
          [-73.9660, 40.6860]
        ]]
      }
    },
    {
      "type": "Feature",
      "properties": {
        "name": "Park Slope",
        "boundary_note": "Grand Army Plaza / Flatbush Ave (N/NE, border with Prospect Heights) - Prospect Park West (E, border with Prospect Park) - 15th St / Prospect Expressway (S, border with Windsor Terrace) - 4th Ave (W, border with Gowanus)."
      },
      "geometry": {
        "type": "Polygon",
        "coordinates": [[
          [-73.9740, 40.6800],
          [-73.9660, 40.6745],
          [-73.9635, 40.6605],
          [-73.9840, 40.6615],
          [-73.9920, 40.6790],
          [-73.9740, 40.6800]
        ]]
      }
    },
    {
      "type": "Feature",
      "properties": {
        "name": "Carroll Gardens",
        "boundary_note": "HAND-TUNED. Degraw St (N, border with Cobble Hill) - Court St / Smith St (E, border with Boerum Hill/Gowanus/Park Slope) - 9th St / Hamilton Ave (S, border with Red Hook/Gowanus) - Hicks St / BQE (W, border with Columbia St Waterfront/Red Hook). Extracted from the merged NTA 'Carroll Gardens-Columbia Street-Red Hook' polygon by cutting along these streets."
      },
      "geometry": {
        "type": "Polygon",
        "coordinates": [[
          [-73.9970, 40.6840],
          [-73.9920, 40.6840],
          [-73.9880, 40.6740],
          [-73.9970, 40.6720],
          [-74.0010, 40.6800],
          [-73.9970, 40.6840]
        ]]
      }
    },
    {
      "type": "Feature",
      "properties": {
        "name": "Cobble Hill",
        "boundary_note": "HAND-TUNED. Atlantic Ave (N, border with Brooklyn Heights) - Court St (E, border with Boerum Hill) - Degraw St (S, border with Carroll Gardens -- shared hand-tuned line) - Hicks St / BQE (W, border with Brooklyn Heights/Red Hook). Extracted from the merged NTA 'Brooklyn Heights-Cobble Hill' polygon by cutting along Atlantic Ave / Degraw St."
      },
      "geometry": {
        "type": "Polygon",
        "coordinates": [[
          [-73.9970, 40.6910],
          [-73.9910, 40.6905],
          [-73.9920, 40.6840],
          [-73.9970, 40.6840],
          [-73.9970, 40.6910]
        ]]
      }
    }
  ]
}
